CCSDS_OMM_VERS = 2.0
CREATION_DATE  = 
ORIGINATOR     = 

OBJECT_NAME    = ATLAS CENTAUR R/B
OBJECT_ID      = 1972-065B
CENTER_NAME    = EARTH
REF_FRAME      = TEME
TIME_SYSTEM    = UTC
MEAN_ELEMENT_THEORY = SGP/SGP4

EPOCH          = 2026-01-05T05:51:45.925056
MEAN_MOTION    = 14.77485737
ECCENTRICITY   = .0034186
INCLINATION    = 35.0030
RA_OF_ASC_NODE = 317.5096
ARG_OF_PERICENTER = 197.7808
MEAN_ANOMALY   = 162.1697

EPHEMERIS_TYPE = 0
CLASSIFICATION_TYPE = U
NORAD_CAT_ID   = 6155
ELEMENT_SET_NO = 999
REV_AT_EPOCH   = 83187
BSTAR          = .23531E-3
MEAN_MOTION_DOT = .1699E-4
MEAN_MOTION_DDOT = 0

CCSDS_OMM_VERS = 2.0
CREATION_DATE  = 
ORIGINATOR     = 

OBJECT_NAME    = SL-8 R/B
OBJECT_ID      = 1975-112B
CENTER_NAME    = EARTH
REF_FRAME      = TEME
TIME_SYSTEM    = UTC
MEAN_ELEMENT_THEORY = SGP/SGP4

EPOCH          = 2026-01-05T11:33:24.432192
MEAN_MOTION    = 14.38164492
ECCENTRICITY   = .0016663
INCLINATION    = 74.0610
RA_OF_ASC_NODE = 135.1884
ARG_OF_PERICENTER = 244.2381
MEAN_ANOMALY   = 115.7054

EPHEMERIS_TYPE = 0
CLASSIFICATION_TYPE = U
NORAD_CAT_ID   = 8459
ELEMENT_SET_NO = 999
REV_AT_EPOCH   = 62278
BSTAR          = .1438E-3
MEAN_MOTION_DOT = .411E-5
MEAN_MOTION_DDOT = 0

CCSDS_OMM_VERS = 2.0
CREATION_DATE  = 
ORIGINATOR     = 

OBJECT_NAME    = SL-3 R/B
OBJECT_ID      = 1977-057B
CENTER_NAME    = EARTH
REF_FRAME      = TEME
TIME_SYSTEM    = UTC
MEAN_ELEMENT_THEORY = SGP/SGP4

EPOCH          = 2026-01-05T11:42:11.668320
MEAN_MOTION    = 15.43627479
ECCENTRICITY   = .0008011
INCLINATION    = 97.5694
RA_OF_ASC_NODE = 174.7531
ARG_OF_PERICENTER = 143.5801
MEAN_ANOMALY   = 216.5993

EPHEMERIS_TYPE = 0
CLASSIFICATION_TYPE = U
NORAD_CAT_ID   = 10114
ELEMENT_SET_NO = 999
REV_AT_EPOCH   = 65857
BSTAR          = .34813E-3
MEAN_MOTION_DOT = .15606E-3
MEAN_MOTION_DDOT = 0

CCSDS_OMM_VERS = 2.0
CREATION_DATE  = 
ORIGINATOR     = 

OBJECT_NAME    = SEASAT 1
OBJECT_ID      = 1978-064A
CENTER_NAME    = EARTH
REF_FRAME      = TEME
TIME_SYSTEM    = UTC
MEAN_ELEMENT_THEORY = SGP/SGP4

EPOCH          = 2026-01-05T11:29:38.689728
MEAN_MOTION    = 14.46093370
ECCENTRICITY   = .0001201
INCLINATION    = 108.0145
RA_OF_ASC_NODE = 352.8429
ARG_OF_PERICENTER = 265.7134
MEAN_ANOMALY   = 94.3875

EPHEMERIS_TYPE = 0
CLASSIFICATION_TYPE = U
NORAD_CAT_ID   = 10967
ELEMENT_SET_NO = 999
REV_AT_EPOCH   = 49737
BSTAR          = .20225E-3
MEAN_MOTION_DOT = .585E-5
MEAN_MOTION_DDOT = 0

CCSDS_OMM_VERS = 2.0
CREATION_DATE  = 
ORIGINATOR     = 

OBJECT_NAME    = SL-14 R/B
OBJECT_ID      = 1979-011B
CENTER_NAME    = EARTH
REF_FRAME      = TEME
TIME_SYSTEM    = UTC
MEAN_ELEMENT_THEORY = SGP/SGP4

EPOCH          = 2026-01-05T11:10:31.829088
MEAN_MOTION    = 14.91808960
ECCENTRICITY   = .0014633
INCLINATION    = 82.5249
RA_OF_ASC_NODE = 156.5424
ARG_OF_PERICENTER = 268.7001
MEAN_ANOMALY   = 91.2542

EPHEMERIS_TYPE = 0
CLASSIFICATION_TYPE = U
NORAD_CAT_ID   = 11267
ELEMENT_SET_NO = 999
REV_AT_EPOCH   = 51935
BSTAR          = .1007E-3
MEAN_MOTION_DOT = .1042E-4
MEAN_MOTION_DDOT = 0

CCSDS_OMM_VERS = 2.0
CREATION_DATE  = 
ORIGINATOR     = 

OBJECT_NAME    = SL-8 R/B
OBJECT_ID      = 1979-089B
CENTER_NAME    = EARTH
REF_FRAME      = TEME
TIME_SYSTEM    = UTC
MEAN_ELEMENT_THEORY = SGP/SGP4

EPOCH          = 2026-01-05T06:44:13.139232
MEAN_MOTION    = 14.42299755
ECCENTRICITY   = .00150848
INCLINATION    = 74.0673
RA_OF_ASC_NODE = 208.4091
ARG_OF_PERICENTER = 33.4686
MEAN_ANOMALY   = 326.7420

EPHEMERIS_TYPE = 0
CLASSIFICATION_TYPE = U
NORAD_CAT_ID   = 11574
ELEMENT_SET_NO = 999
REV_AT_EPOCH   = 42696
BSTAR          = .10399085E-3
MEAN_MOTION_DOT = .317E-5
MEAN_MOTION_DDOT = 0

CCSDS_OMM_VERS = 2.0
CREATION_DATE  = 
ORIGINATOR     = 

OBJECT_NAME    = SL-14 R/B
OBJECT_ID      = 1980-005B
CENTER_NAME    = EARTH
REF_FRAME      = TEME
TIME_SYSTEM    = UTC
MEAN_ELEMENT_THEORY = SGP/SGP4

EPOCH          = 2026-01-05T12:06:12.788352
MEAN_MOTION    = 14.90828043
ECCENTRICITY   = .0016283
INCLINATION    = 82.5139
RA_OF_ASC_NODE = 7.1575
ARG_OF_PERICENTER = 19.8558
MEAN_ANOMALY   = 340.3291

EPHEMERIS_TYPE = 0
CLASSIFICATION_TYPE = U
NORAD_CAT_ID   = 11672
ELEMENT_SET_NO = 999
REV_AT_EPOCH   = 46707
BSTAR          = .95774E-4
MEAN_MOTION_DOT = .97E-5
MEAN_MOTION_DDOT = 0

CCSDS_OMM_VERS = 2.0
CREATION_DATE  = 
ORIGINATOR     = 

OBJECT_NAME    = SL-8 R/B
OBJECT_ID      = 1981-003B
CENTER_NAME    = EARTH
REF_FRAME      = TEME
TIME_SYSTEM    = UTC
MEAN_ELEMENT_THEORY = SGP/SGP4

EPOCH          = 2026-01-05T10:26:38.456448
MEAN_MOTION    = 15.08020325
ECCENTRICITY   = .0274754
INCLINATION    = 82.9374
RA_OF_ASC_NODE = 348.3973
ARG_OF_PERICENTER = 39.0096
MEAN_ANOMALY   = 323.0598

EPHEMERIS_TYPE = 0
CLASSIFICATION_TYPE = U
NORAD_CAT_ID   = 12139
ELEMENT_SET_NO = 999
REV_AT_EPOCH   = 30513
BSTAR          = .81135E-3
MEAN_MOTION_DOT = .30751E-3
MEAN_MOTION_DDOT = 0

CCSDS_OMM_VERS = 2.0
CREATION_DATE  = 
ORIGINATOR     = 

OBJECT_NAME    = SL-3 R/B
OBJECT_ID      = 1981-046B
CENTER_NAME    = EARTH
REF_FRAME      = TEME
TIME_SYSTEM    = UTC
MEAN_ELEMENT_THEORY = SGP/SGP4

EPOCH          = 2026-01-05T11:27:35.482464
MEAN_MOTION    = 15.40209786
ECCENTRICITY   = .0018025
INCLINATION    = 81.2320
RA_OF_ASC_NODE = 5.5262
ARG_OF_PERICENTER = 236.0755
MEAN_ANOMALY   = 123.8773

EPHEMERIS_TYPE = 0
CLASSIFICATION_TYPE = U
NORAD_CAT_ID   = 12465
ELEMENT_SET_NO = 999
REV_AT_EPOCH   = 42869
BSTAR          = .35528E-3
MEAN_MOTION_DOT = .14389E-3
MEAN_MOTION_DDOT = 0

CCSDS_OMM_VERS = 2.0
CREATION_DATE  = 
ORIGINATOR     = 

OBJECT_NAME    = SL-3 R/B
OBJECT_ID      = 1981-103B
CENTER_NAME    = EARTH
REF_FRAME      = TEME
TIME_SYSTEM    = UTC
MEAN_ELEMENT_THEORY = SGP/SGP4

EPOCH          = 2026-01-05T11:37:39.758880
MEAN_MOTION    = 15.20576186
ECCENTRICITY   = .0013756
INCLINATION    = 81.1603
RA_OF_ASC_NODE = 287.5411
ARG_OF_PERICENTER = 132.6190
MEAN_ANOMALY   = 227.6204

EPHEMERIS_TYPE = 0
CLASSIFICATION_TYPE = U
NORAD_CAT_ID   = 12904
ELEMENT_SET_NO = 999
REV_AT_EPOCH   = 96362
BSTAR          = .31795E-3
MEAN_MOTION_DOT = .7005E-4
MEAN_MOTION_DDOT = 0

CCSDS_OMM_VERS = 2.0
CREATION_DATE  = 
ORIGINATOR     = 

OBJECT_NAME    = SL-3 R/B
OBJECT_ID      = 1982-013B
CENTER_NAME    = EARTH
REF_FRAME      = TEME
TIME_SYSTEM    = UTC
MEAN_ELEMENT_THEORY = SGP/SGP4

EPOCH          = 2026-01-05T10:55:22.028448
MEAN_MOTION    = 15.21330946
ECCENTRICITY   = .002359
INCLINATION    = 81.1726
RA_OF_ASC_NODE = 234.8470
ARG_OF_PERICENTER = 34.9395
MEAN_ANOMALY   = 325.3378

EPHEMERIS_TYPE = 0
CLASSIFICATION_TYPE = U
NORAD_CAT_ID   = 13068
ELEMENT_SET_NO = 999
REV_AT_EPOCH   = 39473
BSTAR          = .23633E-3
MEAN_MOTION_DOT = .5355E-4
MEAN_MOTION_DDOT = 0

CCSDS_OMM_VERS = 2.0
CREATION_DATE  = 
ORIGINATOR     = 

OBJECT_NAME    = SL-3 R/B
OBJECT_ID      = 1982-039B
CENTER_NAME    = EARTH
REF_FRAME      = TEME
TIME_SYSTEM    = UTC
MEAN_ELEMENT_THEORY = SGP/SGP4

EPOCH          = 2026-01-05T10:26:23.853120
MEAN_MOTION    = 15.09697181
ECCENTRICITY   = .0029643
INCLINATION    = 81.1700
RA_OF_ASC_NODE = 288.8330
ARG_OF_PERICENTER = 171.9736
MEAN_ANOMALY   = 188.1970

EPHEMERIS_TYPE = 0
CLASSIFICATION_TYPE = U
NORAD_CAT_ID   = 13154
ELEMENT_SET_NO = 999
REV_AT_EPOCH   = 37209
BSTAR          = .23538E-3
MEAN_MOTION_DOT = .3854E-4
MEAN_MOTION_DDOT = 0

