ATLAS CENTAUR R/B       
1 06155U 72065B   26005.24428154  .00001699  00000+0  23531-3 0  9991
2 06155  35.0030 317.5096 0034186 197.7808 162.1697 14.77485737831875
SL-8 R/B                
1 08459U 75112B   26005.48153278  .00000411  00000+0  14380-3 0  9997
2 08459  74.0610 135.1884 0016663 244.2381 115.7054 14.38164492622782
SL-3 R/B                
1 10114U 77057B   26005.48763505  .00015606  00000+0  34813-3 0  9993
2 10114  97.5694 174.7531 0008011 143.5801 216.5993 15.43627479658573
SEASAT 1                
1 10967U 78064A   26005.47892002  .00000585  00000+0  20225-3 0  9994
2 10967 108.0145 352.8429 0001201 265.7134  94.3875 14.46093370497372
SL-14 R/B               
1 11267U 79011B   26005.46564617  .00001042  00000+0  10070-3 0  9994
2 11267  82.5249 156.5424 0014633 268.7001  91.2542 14.91808960519359
SL-8 R/B                
1 11574U 79089B   26005.28070763  .00000317  00000+0  10399-3 0  9992
2 11574  74.0673 208.4091 0015085  33.4686 326.7420 14.42299755426969
SL-14 R/B               
1 11672U 80005B   26005.50431468  .00000970  00000+0  95774-4 0  9995
2 11672  82.5139   7.1575 0016283  19.8558 340.3291 14.90828043467073
SL-8 R/B                
1 12139U 81003B   26005.43516732  .00030751  00000+0  81135-3 0  9998
2 12139  82.9374 348.3973 0274754  39.0096 323.0598 15.08020325305132
SL-3 R/B                
1 12465U 81046B   26005.47749401  .00014389  00000+0  35528-3 0  9996
2 12465  81.2320   5.5262 0018025 236.0755 123.8773 15.40209786428692
SL-3 R/B                
1 12904U 81103B   26005.48448795  .00007005  00000+0  31795-3 0  9990
2 12904  81.1603 287.5411 0013756 132.6190 227.6204 15.20576186963629
SL-3 R/B                
1 13068U 82013B   26005.45511607  .00005355  00000+0  23633-3 0  9991
2 13068  81.1726 234.8470 0023590  34.9395 325.3378 15.21330946394736
SL-3 R/B                
1 13154U 82039B   26005.43499830  .00003854  00000+0  23538-3 0  9992
2 13154  81.1700 288.8330 0029643 171.9736 188.1970 15.09697181372095
